CCSDS_OMM_VERS = 2.0
CREATION_DATE  = 
ORIGINATOR     = 

OBJECT_NAME    = SL-16 R/B
OBJECT_ID      = 1998-045B
CENTER_NAME    = EARTH
REF_FRAME      = TEME
TIME_SYSTEM    = UTC
MEAN_ELEMENT_THEORY = SGP/SGP4

EPOCH          = 2026-03-31T07:52:28.716096
MEAN_MOTION    = 14.16193335
ECCENTRICITY   = .0008087
INCLINATION    = 71.0095
RA_OF_ASC_NODE = 136.0716
ARG_OF_PERICENTER = 335.4215
MEAN_ANOMALY   = 24.6522

EPHEMERIS_TYPE = 0
CLASSIFICATION_TYPE = U
NORAD_CAT_ID   = 25407
ELEMENT_SET_NO = 999
REV_AT_EPOCH   = 43016
BSTAR          = -.55999392E-4
MEAN_MOTION_DOT = -.159E-5
MEAN_MOTION_DDOT = 0

CCSDS_OMM_VERS = 2.0
CREATION_DATE  = 
ORIGINATOR     = 

OBJECT_NAME    = ISS (ZARYA)
OBJECT_ID      = 1998-067A
CENTER_NAME    = EARTH
REF_FRAME      = TEME
TIME_SYSTEM    = UTC
MEAN_ELEMENT_THEORY = SGP/SGP4

EPOCH          = 2026-03-31T20:13:47.748864
MEAN_MOTION    = 15.48686199
ECCENTRICITY   = .000622
INCLINATION    = 51.6336
RA_OF_ASC_NODE = 322.8401
ARG_OF_PERICENTER = 256.5772
MEAN_ANOMALY   = 103.4524

EPHEMERIS_TYPE = 0
CLASSIFICATION_TYPE = U
NORAD_CAT_ID   = 25544
ELEMENT_SET_NO = 999
REV_AT_EPOCH   = 55976
BSTAR          = .20301E-3
MEAN_MOTION_DOT = .10633E-3
MEAN_MOTION_DDOT = 0

CCSDS_OMM_VERS = 2.0
CREATION_DATE  = 
ORIGINATOR     = 

OBJECT_NAME    = CZ-4B R/B
OBJECT_ID      = 1999-025C
CENTER_NAME    = EARTH
REF_FRAME      = TEME
TIME_SYSTEM    = UTC
MEAN_ELEMENT_THEORY = SGP/SGP4

EPOCH          = 2026-03-31T21:50:27.024864
MEAN_MOTION    = 14.18269768
ECCENTRICITY   = .0035969
INCLINATION    = 98.6580
RA_OF_ASC_NODE = 134.6607
ARG_OF_PERICENTER = 281.2679
MEAN_ANOMALY   = 251.4831

EPHEMERIS_TYPE = 0
CLASSIFICATION_TYPE = U
NORAD_CAT_ID   = 25732
ELEMENT_SET_NO = 999
REV_AT_EPOCH   = 39131
BSTAR          = .62462E-4
MEAN_MOTION_DOT = .86E-6
MEAN_MOTION_DDOT = 0

CCSDS_OMM_VERS = 2.0
CREATION_DATE  = 
ORIGINATOR     = 

OBJECT_NAME    = OKEAN-O
OBJECT_ID      = 1999-039A
CENTER_NAME    = EARTH
REF_FRAME      = TEME
TIME_SYSTEM    = UTC
MEAN_ELEMENT_THEORY = SGP/SGP4

EPOCH          = 2026-03-31T10:00:10.559232
MEAN_MOTION    = 14.80370806
ECCENTRICITY   = .00008522
INCLINATION    = 97.9397
RA_OF_ASC_NODE = 150.0826
ARG_OF_PERICENTER = 97.6619
MEAN_ANOMALY   = 262.4690

EPHEMERIS_TYPE = 0
CLASSIFICATION_TYPE = U
NORAD_CAT_ID   = 25860
ELEMENT_SET_NO = 999
REV_AT_EPOCH   = 43760
BSTAR          = .12733517E-3
MEAN_MOTION_DOT = .92E-5
MEAN_MOTION_DDOT = 0

CCSDS_OMM_VERS = 2.0
CREATION_DATE  = 
ORIGINATOR     = 

OBJECT_NAME    = SL-16 R/B
OBJECT_ID      = 1999-039B
CENTER_NAME    = EARTH
REF_FRAME      = TEME
TIME_SYSTEM    = UTC
MEAN_ELEMENT_THEORY = SGP/SGP4

EPOCH          = 2026-03-31T10:39:02.059776
MEAN_MOTION    = 14.81761820
ECCENTRICITY   = .00147586
INCLINATION    = 97.9919
RA_OF_ASC_NODE = 149.5029
ARG_OF_PERICENTER = 181.5878
MEAN_ANOMALY   = 178.5290

EPHEMERIS_TYPE = 0
CLASSIFICATION_TYPE = U
NORAD_CAT_ID   = 25861
ELEMENT_SET_NO = 999
REV_AT_EPOCH   = 44008
BSTAR          = .1059212E-3
MEAN_MOTION_DOT = .783E-5
MEAN_MOTION_DDOT = 0

CCSDS_OMM_VERS = 2.0
CREATION_DATE  = 
ORIGINATOR     = 

OBJECT_NAME    = DELTA 2 R/B
OBJECT_ID      = 1999-041E
CENTER_NAME    = EARTH
REF_FRAME      = TEME
TIME_SYSTEM    = UTC
MEAN_ELEMENT_THEORY = SGP/SGP4

EPOCH          = 2026-03-31T17:46:52.203936
MEAN_MOTION    = 14.11889220
ECCENTRICITY   = .050263
INCLINATION    = 51.7608
RA_OF_ASC_NODE = 213.1914
ARG_OF_PERICENTER = 53.4574
MEAN_ANOMALY   = 311.1556

EPHEMERIS_TYPE = 0
CLASSIFICATION_TYPE = U
NORAD_CAT_ID   = 25876
ELEMENT_SET_NO = 999
REV_AT_EPOCH   = 36614
BSTAR          = .22214E-3
MEAN_MOTION_DOT = .1137E-4
MEAN_MOTION_DDOT = 0

CCSDS_OMM_VERS = 2.0
CREATION_DATE  = 
ORIGINATOR     = 

OBJECT_NAME    = HELIOS 1B
OBJECT_ID      = 1999-064A
CENTER_NAME    = EARTH
REF_FRAME      = TEME
TIME_SYSTEM    = UTC
MEAN_ELEMENT_THEORY = SGP/SGP4

EPOCH          = 2026-03-31T10:30:30.163104
MEAN_MOTION    = 14.87783052
ECCENTRICITY   = .00017302
INCLINATION    = 98.1675
RA_OF_ASC_NODE = 353.3182
ARG_OF_PERICENTER = 47.5616
MEAN_ANOMALY   = 312.5745

EPHEMERIS_TYPE = 0
CLASSIFICATION_TYPE = U
NORAD_CAT_ID   = 25977
ELEMENT_SET_NO = 999
REV_AT_EPOCH   = 68849
BSTAR          = .23419627E-3
MEAN_MOTION_DOT = .2079E-4
MEAN_MOTION_DDOT = 0

CCSDS_OMM_VERS = 2.0
CREATION_DATE  = 
ORIGINATOR     = 

OBJECT_NAME    = TERRA
OBJECT_ID      = 1999-068A
CENTER_NAME    = EARTH
REF_FRAME      = TEME
TIME_SYSTEM    = UTC
MEAN_ELEMENT_THEORY = SGP/SGP4

EPOCH          = 2026-03-31T20:11:31.611840
MEAN_MOTION    = 14.61038645
ECCENTRICITY   = .000362
INCLINATION    = 97.9546
RA_OF_ASC_NODE = 143.4247
ARG_OF_PERICENTER = 105.7304
MEAN_ANOMALY   = 342.3696

EPHEMERIS_TYPE = 0
CLASSIFICATION_TYPE = U
NORAD_CAT_ID   = 25994
ELEMENT_SET_NO = 999
REV_AT_EPOCH   = 39831
BSTAR          = .13196E-3
MEAN_MOTION_DOT = .603E-5
MEAN_MOTION_DDOT = 0

CCSDS_OMM_VERS = 2.0
CREATION_DATE  = 
ORIGINATOR     = 

OBJECT_NAME    = SL-16 R/B
OBJECT_ID      = 2000-006B
CENTER_NAME    = EARTH
REF_FRAME      = TEME
TIME_SYSTEM    = UTC
MEAN_ELEMENT_THEORY = SGP/SGP4

EPOCH          = 2026-03-31T15:09:46.454688
MEAN_MOTION    = 14.15829241
ECCENTRICITY   = .0015511
INCLINATION    = 71.0029
RA_OF_ASC_NODE = 51.6966
ARG_OF_PERICENTER = 155.4544
MEAN_ANOMALY   = 204.7320

EPHEMERIS_TYPE = 0
CLASSIFICATION_TYPE = U
NORAD_CAT_ID   = 26070
ELEMENT_SET_NO = 999
REV_AT_EPOCH   = 35166
BSTAR          = .16402E-3
MEAN_MOTION_DOT = .275E-5
MEAN_MOTION_DDOT = 0

CCSDS_OMM_VERS = 2.0
CREATION_DATE  = 
ORIGINATOR     = 

OBJECT_NAME    = TITAN 4B R/B
OBJECT_ID      = 2000-047B
CENTER_NAME    = EARTH
REF_FRAME      = TEME
TIME_SYSTEM    = UTC
MEAN_ELEMENT_THEORY = SGP/SGP4

EPOCH          = 2026-03-31T21:23:38.737248
MEAN_MOTION    = 15.09769164
ECCENTRICITY   = .004
INCLINATION    = 67.9910
RA_OF_ASC_NODE = 338.0731
ARG_OF_PERICENTER = 9.3342
MEAN_ANOMALY   = 350.8541

EPHEMERIS_TYPE = 0
CLASSIFICATION_TYPE = U
NORAD_CAT_ID   = 26474
ELEMENT_SET_NO = 999
REV_AT_EPOCH   = 39626
BSTAR          = .30073E-3
MEAN_MOTION_DOT = .4824E-4
MEAN_MOTION_DDOT = 0

CCSDS_OMM_VERS = 2.0
CREATION_DATE  = 
ORIGINATOR     = 

OBJECT_NAME    = ENVISAT
OBJECT_ID      = 2002-009A
CENTER_NAME    = EARTH
REF_FRAME      = TEME
TIME_SYSTEM    = UTC
MEAN_ELEMENT_THEORY = SGP/SGP4

EPOCH          = 2026-03-31T20:31:35.956128
MEAN_MOTION    = 14.39044847
ECCENTRICITY   = .0001218
INCLINATION    = 98.3765
RA_OF_ASC_NODE = 43.9299
ARG_OF_PERICENTER = 82.3149
MEAN_ANOMALY   = 304.3382

EPHEMERIS_TYPE = 0
CLASSIFICATION_TYPE = U
NORAD_CAT_ID   = 27386
ELEMENT_SET_NO = 999
REV_AT_EPOCH   = 26236
BSTAR          = .68527E-4
MEAN_MOTION_DOT = .169E-5
MEAN_MOTION_DDOT = 0

CCSDS_OMM_VERS = 2.0
CREATION_DATE  = 
ORIGINATOR     = 

OBJECT_NAME    = IDEFIX & ARIANE 42P R/B
OBJECT_ID      = 2002-021B
CENTER_NAME    = EARTH
REF_FRAME      = TEME
TIME_SYSTEM    = UTC
MEAN_ELEMENT_THEORY = SGP/SGP4

EPOCH          = 2026-03-31T14:10:15.409632
MEAN_MOTION    = 14.31041145
ECCENTRICITY   = .0012732
INCLINATION    = 98.5896
RA_OF_ASC_NODE = 28.9383
ARG_OF_PERICENTER = 119.9144
MEAN_ANOMALY   = 240.3305

EPHEMERIS_TYPE = 0
CLASSIFICATION_TYPE = U
NORAD_CAT_ID   = 27422
ELEMENT_SET_NO = 999
REV_AT_EPOCH   = 24715
BSTAR          = .15081E-3
MEAN_MOTION_DOT = .354E-5
MEAN_MOTION_DDOT = 0

